[{"OBJECT_NAME":"BANE","OBJECT_ID":"2023-185D","EPOCH":"2026-03-09T22:38:54.916224","MEAN_MOTION":15.6846319,"ECCENTRICITY":0.00050193,"INCLINATION":97.3445,"RA_OF_ASC_NODE":151.472,"ARG_OF_PERICENTER":176.385,"MEAN_ANOMALY":183.7448,"EPHEMERIS_TYPE":0,"CLASSIFICATION_TYPE":"U","NORAD_CAT_ID":58465,"ELEMENT_SET_NO":999,"REV_AT_EPOCH":12713,"BSTAR":0.00097597303,"MEAN_MOTION_DOT":0.00111172,"MEAN_MOTION_DDOT":0},{"OBJECT_NAME":"STARLINK-11145 [DTC]","OBJECT_ID":"2024-107A","EPOCH":"2026-03-09T18:22:28.071552","MEAN_MOTION":15.69673214,"ECCENTRICITY":8.594e-5,"INCLINATION":53.1588,"RA_OF_ASC_NODE":251.2018,"ARG_OF_PERICENTER":60.5168,"MEAN_ANOMALY":299.5935,"EPHEMERIS_TYPE":0,"CLASSIFICATION_TYPE":"U","NORAD_CAT_ID":59945,"ELEMENT_SET_NO":999,"REV_AT_EPOCH":10215,"BSTAR":5.7081007e-5,"MEAN_MOTION_DOT":6.322e-5,"MEAN_MOTION_DDOT":0}]
